TEVEL2-2                
1 63219U 25052K   26068.64848259  .00020339  00000+0  69428-3 0  9991
2 63219  97.3987 324.7700 0004693 105.7930 254.3828 15.30343745 54855
STARLINK-36046          
1 66810U 25278V   26068.46972512  .00030617  00000+0  11172-2 0  9993
2 66810  43.0007 115.7636 0001347 277.2176  82.8523 15.27588727 15177
