[{"OBJECT_NAME":"TEVEL2-2","OBJECT_ID":"2025-052K","EPOCH":"2026-03-09T15:33:48.895776","MEAN_MOTION":15.30343745,"ECCENTRICITY":0.0004693,"INCLINATION":97.3987,"RA_OF_ASC_NODE":324.77,"ARG_OF_PERICENTER":105.793,"MEAN_ANOMALY":254.3828,"EPHEMERIS_TYPE":0,"CLASSIFICATION_TYPE":"U","NORAD_CAT_ID":63219,"ELEMENT_SET_NO":999,"REV_AT_EPOCH":5485,"BSTAR":0.00069428,"MEAN_MOTION_DOT":0.00020339,"MEAN_MOTION_DDOT":0},{"OBJECT_NAME":"STARLINK-36046","OBJECT_ID":"2025-278V","EPOCH":"2026-03-09T11:16:24.250368","MEAN_MOTION":15.27588727,"ECCENTRICITY":0.00013477,"INCLINATION":43.0007,"RA_OF_ASC_NODE":115.7636,"ARG_OF_PERICENTER":277.2176,"MEAN_ANOMALY":82.8523,"EPHEMERIS_TYPE":0,"CLASSIFICATION_TYPE":"U","NORAD_CAT_ID":66810,"ELEMENT_SET_NO":999,"REV_AT_EPOCH":1517,"BSTAR":0.0011172214,"MEAN_MOTION_DOT":0.00030617,"MEAN_MOTION_DDOT":0}]
